ONEWEB-0115
1 48042U 21025A   24155.37737321  .00000053  00000+0  10982-3 0  9998
2 48042  87.8914 108.2906 0002136  87.0163 273.1211 13.13469430155967
ONEWEB-0152
1 48043U 21025B   24155.39007080  .00000298  00000+0  78008-3 0  9997
2 48043  87.8919 108.2851 0002115  85.3162 274.8209 13.13468661155925
ONEWEB-0150
1 48047U 21025F   24155.38054657  .00000111  00000+0  26773-3 0  9998
2 48047  87.8915 108.2745 0002002  79.8968 280.2386 13.13468946155905
ONEWEB-0107
1 48048U 21025G   24155.15359532 -.00000437  00000+0 -12305-2 0  9992
2 48048  87.8921 108.3175 0002064  74.9060 285.2298 13.13474373155850
ONEWEB-0112
1 48051U 21025K   24154.62511971  .00000295  00000+0  77372-3 0  9990
2 48051  87.8915 108.4206 0001994  82.8921 277.2435 13.13468991155851
ONEWEB-0161
1 48053U 21025M   24155.36943763 -.00000140  00000+0 -41791-3 0  9999
2 48053  87.8922 108.2759 0002114  77.4263 282.7102 13.13469252155871
ONEWEB-0164
1 48063U 21025X   24155.37419768 -.00000013  00000+0 -70241-4 0  9996
2 48063  87.8918 108.2757 0002182  84.2400 275.8978 13.13469397155952
ONEWEB-0171
1 48070U 21025AE  24155.14407876 -.00000027  00000+0 -10879-3 0  9991
2 48070  87.8922 108.3473 0002202  81.0357 279.1021 13.13469712155946
ONEWEB-0177
1 48074U 21025AJ  24155.14725370  .00000015  00000+0  56962-5 0  9997
2 48074  87.8918 108.3245 0002020  69.7628 290.3718 13.13469067156003
ONEWEB-0169
1 48077U 21025AM  24154.62353325  .00000293  00000+0  76636-3 0  9995
2 48077  87.8918 108.4360 0001866  87.9821 272.1522 13.13468898154560
ONEWEB-0336
1 49202U 21083S   24155.15519494  .00000194  00000+0  49551-3 0  9996
2 49202  87.8924 108.3396 0002074  86.7928 273.3439 13.13469801134544
ONEWEB-0344
1 49210U 21083AA  24154.60923993 -.00000039  00000+0 -14144-3 0  9997
2 49210  87.8923 108.4590 0001972  68.7740 291.3600 13.13469146133155
ONEWEB-0345
1 49211U 21083AB  24155.23612693  .00000264  00000+0  68688-3 0  9990
2 49211  87.8922 108.3100 0001931  66.8091 293.3241 13.13469015134546
ONEWEB-0352
1 49216U 21083AG  24154.84571709  .00000161  00000+0  40601-3 0  9994
2 49216  87.8923 108.4095 0002354  83.1391 277.0006 13.13469121133311
ONEWEB-0503
1 54121U 22138J   24154.54417923  .00000101  00000+0  22090-3 0  9997
2 54121  87.9143  93.1490 0001645  89.2119 270.9202 13.19719501 78609
ONEWEB-0518
1 54136U 22138Z   24155.23125466 -.00000237  00000+0 -62403-3 0  9992
2 54136  87.9153  93.0286 0002003  84.6249 275.5112 13.19725418 79572
ONEWEB-0522
1 54140U 22138AD  24155.22811081  .00000032  00000+0  47383-4 0  9993
2 54140  87.9143  93.0105 0002205  81.7665 278.3718 13.19723889 79551
ONEWEB-0658
1 55819U 23029Z   24155.07806196  .00000043  00000+0  74901-4 0  9999
2 55819  87.9151  92.9956 0002722  81.7810 278.3632 13.19723550 61452
ONEWEB-0671
1 55830U 23029AL  24155.22496322  .00000088  00000+0  18849-3 0  9992
2 55830  87.9152  93.0291 0002124  90.1217 270.0159 13.19725284 61461
